CTC1_L_00455001-01
1 10000U 22973ZB  26075.70035880  .00000000  00000+0  00000-0 0  9994
2 10000  43.0000   0.0000 0000000   0.0000   0.0000 15.76628882    14
CTC1_L_00455001-02
1 10001U 22334BF  26075.70035880  .00000000  00000+0  00000-0 0  9996
2 10001  43.0000   0.0000 0000000   0.0000 180.0000 15.76628882    14
CTC1_L_00455002-01
1 10002U 22540PY  26075.70035880  .00000000  00000+0  00000-0 0  9996
2 10002  43.0000  12.0000 0000000   0.0000  24.0000 15.76628882    15
CTC1_L_00455002-02
1 10003U 25624HF  26075.70035880  .00000000  00000+0  00000-0 0  9993
2 10003  43.0000  12.0000 0000000   0.0000 204.0000 15.76628882    16
CTC1_L_00455003-01
1 10004U 23062US  26075.70035880  .00000000  00000+0  00000-0 0  9998
2 10004  43.0000  24.0000 0000000   0.0000  48.0000 15.76628882    16
CTC1_L_00455003-02
1 10005U 25800MY  26075.70035880  .00000000  00000+0  00000-0 0  9991
2 10005  43.0000  24.0000 0000000   0.0000 228.0000 15.76628882    17
CTC1_L_00455004-01
1 10006U 25084YQ  26075.70035880  .00000000  00000+0  00000-0 0  9996
2 10006  43.0000  36.0000 0000000   0.0000  72.0000 15.76628882    18
CTC1_L_00455004-02
1 10007U 22722AN  26075.70035880  .00000000  00000+0  00000-0 0  9993
2 10007  43.0000  36.0000 0000000   0.0000 252.0000 15.76628882    19
CTC1_L_00455005-01
1 10008U 23275XJ  26075.70035880  .00000000  00000+0  00000-0 0  9998
2 10008  43.0000  48.0000 0000000   0.0000  96.0000 15.76628882    19
CTC1_L_00455005-02
1 10009U 25128KK  26075.70035880  .00000000  00000+0  00000-0 0  9998
2 10009  43.0000  48.0000 0000000   0.0000 276.0000 15.76628882    10
CTC1_L_00455006-01
1 10010U 22153KB  26075.70035880  .00000000  00000+0  00000-0 0  9995
2 10010  43.0000  60.0000 0000000   0.0000 120.0000 15.76628882    14
CTC1_L_00455006-02
1 10011U 25913GY  26075.70035880  .00000000  00000+0  00000-0 0  9993
2 10011  43.0000  60.0000 0000000   0.0000 300.0000 15.76628882    15
CTC1_L_00455007-01
1 10012U 26511TH  26075.70035880  .00000000  00000+0  00000-0 0  9999
2 10012  43.0000  72.0000 0000000   0.0000 144.0000 15.76628882    15
CTC1_L_00455007-02
1 10013U 22335WI  26075.70035880  .00000000  00000+0  00000-0 0  9990
2 10013  43.0000  72.0000 0000000   0.0000 324.0000 15.76628882    16
CTC1_L_00455008-01
1 10014U 26301TD  26075.70035880  .00000000  00000+0  00000-0 0  9998
2 10014  43.0000  84.0000 0000000   0.0000 168.0000 15.76628882    16
CTC1_L_00455008-02
1 10015U 26489VV  26075.70035880  .00000000  00000+0  00000-0 0  9996
2 10015  43.0000  84.0000 0000000   0.0000 348.0000 15.76628882    17
CTC1_L_00455009-01
1 10016U 24241ZL  26075.70035880  .00000000  00000+0  00000-0 0  9991
2 10016  43.0000  96.0000 0000000   0.0000 192.0000 15.76628882    18
CTC1_L_00455009-02
1 10017U 25084KF  26075.70035880  .00000000  00000+0  00000-0 0  9998
2 10017  43.0000  96.0000 0000000   0.0000  12.0000 15.76628882    10
CTC1_L_00455010-01
1 10018U 24085ZO  26075.70035880  .00000000  00000+0  00000-0 0  9999
2 10018  43.0000 108.0000 0000000   0.0000 216.0000 15.76628882    11
CTC1_L_00455010-02
1 10019U 22944VK  26075.70035880  .00000000  00000+0  00000-0 0  9992
2 10019  43.0000 108.0000 0000000   0.0000  36.0000 15.76628882    12
CTC1_L_00455011-01
1 10020U 23147YY  26075.70035880  .00000000  00000+0  00000-0 0  9990
2 10020  43.0000 120.0000 0000000   0.0000 240.0000 15.76628882    15
CTC1_L_00455011-02
1 10021U 22180ON  26075.70035880  .00000000  00000+0  00000-0 0  9997
2 10021  43.0000 120.0000 0000000   0.0000  60.0000 15.76628882    16
CTC1_L_00455012-01
1 10022U 22016UY  26075.70035880  .00000000  00000+0  00000-0 0  9996
2 10022  43.0000 132.0000 0000000   0.0000 264.0000 15.76628882    16
CTC1_L_00455012-02
1 10023U 26346VM  26075.70035880  .00000000  00000+0  00000-0 0  9997
2 10023  43.0000 132.0000 0000000   0.0000  84.0000 15.76628882    17
CTC1_L_00455013-01
1 10024U 23905TN  26075.70035880  .00000000  00000+0  00000-0 0  9996
2 10024  43.0000 144.0000 0000000   0.0000 288.0000 15.76628882    17
CTC1_L_00455013-02
1 10025U 24059ME  26075.70035880  .00000000  00000+0  00000-0 0  9998
2 10025  43.0000 144.0000 0000000   0.0000 108.0000 15.76628882    19
CTC1_L_00455014-01
1 10026U 25850KU  26075.70035880  .00000000  00000+0  00000-0 0  9999
2 10026  43.0000 156.0000 0000000   0.0000 312.0000 15.76628882    10
CTC1_L_00455014-02
1 10027U 25178PQ  26075.70035880  .00000000  00000+0  00000-0 0  9993
2 10027  43.0000 156.0000 0000000   0.0000 132.0000 15.76628882    11
CTC1_L_00455015-01
1 10028U 24104XC  26075.70035880  .00000000  00000+0  00000-0 0  9992
2 10028  43.0000 168.0000 0000000   0.0000 336.0000 15.76628882    11
CTC1_L_00455015-02
1 10029U 22058YP  26075.70035880  .00000000  00000+0  00000-0 0  9999
2 10029  43.0000 168.0000 0000000   0.0000 156.0000 15.76628882    12
CTC1_L_00455016-01
1 10030U 22935FE  26075.70035880  .00000000  00000+0  00000-0 0  9995
2 10030  43.0000 180.0000 0000000   0.0000   0.0000 15.76628882    16
CTC1_L_00455016-02
1 10031U 26243LZ  26075.70035880  .00000000  00000+0  00000-0 0  9992
2 10031  43.0000 180.0000 0000000   0.0000 180.0000 15.76628882    16
CTC1_L_00455017-01
1 10032U 23780YI  26075.70035880  .00000000  00000+0  00000-0 0  9996
2 10032  43.0000 192.0000 0000000   0.0000  24.0000 15.76628882    17
CTC1_L_00455017-02
1 10033U 22157OF  26075.70035880  .00000000  00000+0  00000-0 0  9994
2 10033  43.0000 192.0000 0000000   0.0000 204.0000 15.76628882    18
CTC1_L_00455018-01
1 10034U 23154DE  26075.70035880  .00000000  00000+0  00000-0 0  9993
2 10034  43.0000 204.0000 0000000   0.0000  48.0000 15.76628882    19
CTC1_L_00455018-02
1 10035U 23783II  26075.70035880  .00000000  00000+0  00000-0 0  9992
2 10035  43.0000 204.0000 0000000   0.0000 228.0000 15.76628882    10
CTC1_L_00455019-01
1 10036U 22031EY  26075.70035880  .00000000  00000+0  00000-0 0  9998
2 10036  43.0000 216.0000 0000000   0.0000  72.0000 15.76628882    11
CTC1_L_00455019-02
1 10037U 22994VO  26075.70035880  .00000000  00000+0  00000-0 0  9997
2 10037  43.0000 216.0000 0000000   0.0000 252.0000 15.76628882    12
CTC1_L_00455020-01
1 10038U 22559MZ  26075.70035880  .00000000  00000+0  00000-0 0  9995
2 10038  43.0000 228.0000 0000000   0.0000  96.0000 15.76628882    12
CTC1_L_00455020-02
1 10039U 23667QM  26075.70035880  .00000000  00000+0  00000-0 0  9997
2 10039  43.0000 228.0000 0000000   0.0000 276.0000 15.76628882    13
CTC1_L_00455021-01
1 10040U 25253DB  26075.70035880  .00000000  00000+0  00000-0 0  9992
2 10040  43.0000 240.0000 0000000   0.0000 120.0000 15.76628882    17
CTC1_L_00455021-02
1 10041U 22243KP  26075.70035880  .00000000  00000+0  00000-0 0  9999
2 10041  43.0000 240.0000 0000000   0.0000 300.0000 15.76628882    18
CTC1_L_00455022-01
1 10042U 26932EZ  26075.70035880  .00000000  00000+0  00000-0 0  9999
2 10042  43.0000 252.0000 0000000   0.0000 144.0000 15.76628882    18
CTC1_L_00455022-02
1 10043U 23543XP  26075.70035880  .00000000  00000+0  00000-0 0  9995
2 10043  43.0000 252.0000 0000000   0.0000 324.0000 15.76628882    19
CTC1_L_00455023-01
1 10044U 22683JS  26075.70035880  .00000000  00000+0  00000-0 0  9990
2 10044  43.0000 264.0000 0000000   0.0000 168.0000 15.76628882    19
CTC1_L_00455023-02
1 10045U 26794IW  26075.70035880  .00000000  00000+0  00000-0 0  9998
2 10045  43.0000 264.0000 0000000   0.0000 348.0000 15.76628882    10
CTC1_L_00455024-01
1 10046U 23151BY  26075.70035880  .00000000  00000+0  00000-0 0  9993
2 10046  43.0000 276.0000 0000000   0.0000 192.0000 15.76628882    11
CTC1_L_00455024-02
1 10047U 25117IR  26075.70035880  .00000000  00000+0  00000-0 0  9998
2 10047  43.0000 276.0000 0000000   0.0000  12.0000 15.76628882    13
CTC1_L_00455025-01
1 10048U 24264RL  26075.70035880  .00000000  00000+0  00000-0 0  9991
2 10048  43.0000 288.0000 0000000   0.0000 216.0000 15.76628882    13
CTC1_L_00455025-02
1 10049U 23495HA  26075.70035880  .00000000  00000+0  00000-0 0  9997
2 10049  43.0000 288.0000 0000000   0.0000  36.0000 15.76628882    14
CTC1_L_00455026-01
1 10050U 24355XU  26075.70035880  .00000000  00000+0  00000-0 0  9995
2 10050  43.0000 300.0000 0000000   0.0000 240.0000 15.76628882    18
CTC1_L_00455026-02
1 10051U 24218XL  26075.70035880  .00000000  00000+0  00000-0 0  9994
2 10051  43.0000 300.0000 0000000   0.0000  60.0000 15.76628882    19
CTC1_L_00455027-01
1 10052U 26946QL  26075.70035880  .00000000  00000+0  00000-0 0  9995
2 10052  43.0000 312.0000 0000000   0.0000 264.0000 15.76628882    19
CTC1_L_00455027-02
1 10053U 23543XE  26075.70035880  .00000000  00000+0  00000-0 0  9996
2 10053  43.0000 312.0000 0000000   0.0000  84.0000 15.76628882    10
CTC1_L_00455028-01
1 10054U 25773CT  26075.70035880  .00000000  00000+0  00000-0 0  9994
2 10054  43.0000 324.0000 0000000   0.0000 288.0000 15.76628882    10
CTC1_L_00455028-02
1 10055U 23136LZ  26075.70035880  .00000000  00000+0  00000-0 0  9996
2 10055  43.0000 324.0000 0000000   0.0000 108.0000 15.76628882    12
CTC1_L_00455029-01
1 10056U 22682L   26075.70035880  .00000000  00000+0  00000-0 0  9992
2 10056  43.0000 336.0000 0000000   0.0000 312.0000 15.76628882    13
CTC1_L_00455029-02
1 10057U 22363GB  26075.70035880  .00000000  00000+0  00000-0 0  9999
2 10057  43.0000 336.0000 0000000   0.0000 132.0000 15.76628882    14
CTC1_L_00455030-01
1 10058U 22181DE  26075.70035880  .00000000  00000+0  00000-0 0  9998
2 10058  43.0000 348.0000 0000000   0.0000 336.0000 15.76628882    14
CTC1_L_00455030-02
1 10059U 23152FF  26075.70035880  .00000000  00000+0  00000-0 0  9998
2 10059  43.0000 348.0000 0000000   0.0000 156.0000 15.76628882    15
